STARLINK-32514          
1 61965U 24210G   26068.31247905  .00032758  00000+0  11939-2 0  9998
2 61965  42.9967 174.9140 0000875 294.8592  65.2168 15.27598956 74939
BLUEBON                 
1 62688U 25009CH  26068.70316231  .00010452  00000+0  37313-3 0  9992
2 62688  97.4017 152.2033 0001193  43.3900 316.7434 15.29047253 63767
